COMMENT,ORIGINATOR,NORAD_CAT_ID,OBJECT_NAME,OBJECT_TYPE,CLASSIFICATION_TYPE,INTLDES,EPOCH,EPOCH_MICROSECONDS,MEAN_MOTION,ECCENTRICITY,INCLINATION,RA_OF_ASC_NODE,ARG_OF_PERICENTER,MEAN_ANOMALY,EPHEMERIS_TYPE,ELEMENT_SET_NO,REV_AT_EPOCH,BSTAR,MEAN_MOTION_DOT,MEAN_MOTION_DDOT,FILE,TLE_LINE0,TLE_LINE1,TLE_LINE2,OBJECT_ID,OBJECT_NUMBER,SEMIMAJOR_AXIS,PERIOD,APOGEE,PERIGEE,DECAYED
"GENERATED VIA SPACETRACK.ORG API","18 SPCS","47950","OBJECT U","TBA","U","21022U","2021-09-19 04:09:28","216800","15.05856636","0.0022246","97.5442","162.3577","357.7987","159.6116","0","999","2715","0.000071312","0.00000978","0","3119303","0 OBJECT U","1 47950U 21022U   21262.17324325  .00000978  00000-0  71312-4 0  9994","2 47950  97.5442 162.3577 0022246 357.7987 159.6116 15.05856636 27150","2021-022U","47950","6927.014","95.627","564.289","533.470","0"
"GENERATED VIA SPACETRACK.ORG API","18 SPCS","47950","OBJECT U","TBA","U","21022U","2021-09-19 12:12:29","267712","15.05857902","0.0022258","97.5445","162.6867","356.9047","177.7542","0","999","2720","0.000075457","0.00001039","0","3120008","0 OBJECT U","1 47950U 21022U   21262.50867208  .00001039  00000-0  75457-4 0  9996","2 47950  97.5445 162.6867 0022258 356.9047 177.7542 15.05857902 27206","2021-022U","47950","6927.011","95.627","564.294","533.457","0"
"GENERATED VIA SPACETRACK.ORG API","18 SPCS","47950","OBJECT U","TBA","U","21022U","2021-09-19 12:12:29","267712","15.05857902","0.0022258","97.5445","162.6867","356.9047","177.7542","0","999","2720","0.000075457","0.00001039","0","3120015","0 OBJECT U","1 47950U 21022U   21262.50867208  .00001039  00000-0  75457-4 0  9996","2 47950  97.5445 162.6867 0022258 356.9047 177.7542 15.05857902 27206","2021-022U","47950","6927.011","95.627","564.294","533.457","0"
"GENERATED VIA SPACETRACK.ORG API","18 SPCS","47950","OBJECT U","TBA","U","21022U","2021-09-19 19:47:39","892992","15.05859595","0.0021915","97.5444","162.9959","355.5123","91.6587","0","999","2725","0.000083364","0.00001154","0","3120334","0 OBJECT U","1 47950U 21022U   21262.82476728  .00001154  00000-0  83364-4 0  9998","2 47950  97.5444 162.9959 0021915 355.5123  91.6587 15.05859595 27257","2021-022U","47950","6927.005","95.626","564.051","533.690","0"
"GENERATED VIA SPACETRACK.ORG API","18 SPCS","47950","OBJECT U","TBA","U","21022U","2021-09-19 19:47:39","892992","15.05859595","0.0021915","97.5444","162.9959","355.5123","91.6587","0","999","2725","0.000083364","0.00001154","0","3120378","0 OBJECT U","1 47950U 21022U   21262.82476728  .00001154  00000-0  83364-4 0  9998","2 47950  97.5444 162.9959 0021915 355.5123  91.6587 15.05859595 27257","2021-022U","47950","6927.005","95.626","564.051","533.690","0"
"GENERATED VIA SPACETRACK.ORG API","18 SPCS","47950","OBJECT U","TBA","U","21022U","2021-09-20 02:15:45","163872","15.05860862","0.0021833","97.5447","163.2594","354.4705","112.8007","0","999","2729","0.000088763","0.00001233","0","3120776","0 OBJECT U","1 47950U 21022U   21263.09427273  .00001233  00000-0  88763-4 0  9995","2 47950  97.5447 163.2594 0021833 354.4705 112.8007 15.05860862 27298","2021-022U","47950","6927.001","95.626","563.990","533.743","0"
"GENERATED VIA SPACETRACK.ORG API","18 SPCS","47950","OBJECT U","TBA","U","21022U","2021-09-20 11:53:38","252832","15.05862479","0.0021872","97.5446","163.6519","353.2063","128.2361","0","999","2735","0.000093331","0.000013","0","3121051","0 OBJECT U","1 47950U 21022U   21263.49558163  .00001300  00000-0  93331-4 0  9994","2 47950  97.5446 163.6519 0021872 353.2063 128.2361 15.05862479 27352","2021-022U","47950","6926.996","95.626","564.012","533.711","0"
"GENERATED VIA SPACETRACK.ORG API","18 SPCS","47950","OBJECT U","TBA","U","21022U","2021-09-20 11:53:38","252832","15.05862479","0.0021872","97.5446","163.6519","353.2063","128.2361","0","999","2735","0.000093331","0.000013","0","3121163","0 OBJECT U","1 47950U 21022U   21263.49558163  .00001300  00000-0  93331-4 0  9994","2 47950  97.5446 163.6519 0021872 353.2063 128.2361 15.05862479 27352","2021-022U","47950","6926.996","95.626","564.012","533.711","0"
"GENERATED VIA SPACETRACK.ORG API","18 SPCS","47950","OBJECT U","TBA","U","21022U","2021-09-20 19:42:54","275328","15.05864204","0.0021847","97.5444","163.9709","351.9677","94.9984","0","999","2740","0.00010038","0.00001403","0","3121336","0 OBJECT U","1 47950U 21022U   21263.82146152  .00001403  00000-0  10038-3 0  9998","2 47950  97.5444 163.9709 0021847 351.9677  94.9984 15.05864204 27406","2021-022U","47950","6926.991","95.626","563.990","533.723","0"
"GENERATED VIA SPACETRACK.ORG API","18 SPCS","47950","OBJECT U","TBA","U","21022U","2021-09-20 19:42:54","275328","15.05864204","0.0021847","97.5444","163.9709","351.9677","94.9984","0","999","2740","0.00010038","0.00001403","0","3121356","0 OBJECT U","1 47950U 21022U   21263.82146152  .00001403  00000-0  10038-3 0  9998","2 47950  97.5444 163.9709 0021847 351.9677  94.9984 15.05864204 27406","2021-022U","47950","6926.991","95.626","563.990","533.723","0"
"GENERATED VIA SPACETRACK.ORG API","18 SPCS","47950","OBJECT U","TBA","U","21022U","2021-09-21 02:11:01","156704","15.0586562","0.0021757","97.5443","164.2348","350.9569","116.215","0","999","2744","0.00010607","0.00001486","0","3121558","0 OBJECT U","1 47950U 21022U   21264.09098561  .00001486  00000-0  10607-3 0  9991","2 47950  97.5443 164.2348 0021757 350.9569 116.2150 15.05865620 27447","2021-022U","47950","6926.987","95.626","563.923","533.781","0"
"GENERATED VIA SPACETRACK.ORG API","18 SPCS","47950","OBJECT U","TBA","U","21022U","2021-09-21 11:48:36","78336","15.05867154","0.0021732","97.5443","164.6274","349.6527","130.5567","0","999","2750","0.00010879","0.00001526","0","3121809","0 OBJECT U","1 47950U 21022U   21264.49208424  .00001526  00000-0  10879-3 0  9992","2 47950  97.5443 164.6274 0021732 349.6527 130.5567 15.05867154 27503","2021-022U","47950","6926.982","95.626","563.901","533.793","0"
"GENERATED VIA SPACETRACK.ORG API","18 SPCS","47950","OBJECT U","TBA","U","21022U","2021-09-21 14:51:12","193632","15.05868009","0.0021655","97.5445","164.7517","349.3432","97.8731","0","999","2752","0.00011264","0.00001582","0","3121847","0 OBJECT U","1 47950U 21022U   21264.61889113  .00001582  00000-0  11264-3 0  9997","2 47950  97.5445 164.7517 0021655 349.3432  97.8731 15.05868009 27522","2021-022U","47950","6926.980","95.626","563.845","533.844","0"
"GENERATED VIA SPACETRACK.ORG API","18 SPCS","47950","OBJECT U","TBA","U","21022U","2021-09-21 19:34:46","337376","15.05868889","0.0021592","97.5445","164.9442","348.5376","85.5532","0","999","2755","0.00011498","0.00001616","0","3122159","0 OBJECT U","1 47950U 21022U   21264.81581409  .00001616  00000-0  11498-3 0  9993","2 47950  97.5445 164.9442 0021592 348.5376  85.5532 15.05868889 27551","2021-022U","47950","6926.977","95.626","563.799","533.885","0"
"GENERATED VIA SPACETRACK.ORG API","18 SPCS","47950","OBJECT U","TBA","U","21022U","2021-09-21 22:41:39","77088","15.05869589","0.0021531","97.5448","165.071","347.9697","69.2188","0","999","2757","0.00011768","0.00001655","0","3122258","0 OBJECT U","1 47950U 21022U   21264.94559117  .00001655  00000-0  11768-3 0  9991","2 47950  97.5448 165.0710 0021531 347.9697  69.2188 15.05869589 27572","2021-022U","47950","6926.975","95.626","563.754","533.925","0"
"GENERATED VIA SPACETRACK.ORG API","18 SPCS","47950","OBJECT U","TBA","U","21022U","2021-09-22 03:56:31","634592","15.05870553","0.0021559","97.5448","165.285","347.2768","174.5726","0","999","2760","0.00011983","0.00001687","0","3122624","0 OBJECT U","1 47950U 21022U   21265.16425503  .00001687  00000-0  11983-3 0  9991","2 47950  97.5448 165.2850 0021559 347.2768 174.5726 15.05870553 27606","2021-022U","47950","6926.972","95.626","563.771","533.903","0"
"GENERATED VIA SPACETRACK.ORG API","18 SPCS","47950","OBJECT U","TBA","U","21022U","2021-09-22 11:43:23","254176","15.05871536","0.0021546","97.5449","165.6025","346.2262","132.0951","0","999","2765","0.00011915","0.00001677","0","3123380","0 OBJECT U","1 47950U 21022U   21265.48846359  .00001677  00000-0  11915-3 0  9996","2 47950  97.5449 165.6025 0021546 346.2262 132.0951 15.05871536 27655","2021-022U","47950","6926.969","95.626","563.759","533.909","0"
"GENERATED VIA SPACETRACK.ORG API","18 SPCS","47950","OBJECT U","TBA","U","21022U","2021-09-22 11:43:23","254176","15.05871536","0.0021546","97.5449","165.6025","346.2262","132.0951","0","999","2765","0.00011915","0.00001677","0","3123417","0 OBJECT U","1 47950U 21022U   21265.48846359  .00001677  00000-0  11915-3 0  9996","2 47950  97.5449 165.6025 0021546 346.2262 132.0951 15.05871536 27655","2021-022U","47950","6926.969","95.626","563.759","533.909","0"
"GENERATED VIA SPACETRACK.ORG API","18 SPCS","47950","OBJECT U","TBA","U","21022U","2021-09-22 19:29:46","317696","15.05873048","0.002151","97.5449","165.9198","345.2868","87.7213","0","999","2770","0.00012222","0.00001722","0","3123697","0 OBJECT U","1 47950U 21022U   21265.81234164  .00001722  00000-0  12222-3 0  9991","2 47950  97.5449 165.9198 0021510 345.2868  87.7213 15.05873048 27704","2021-022U","47950","6926.964","95.626","563.729","533.929","0"
"GENERATED VIA SPACETRACK.ORG API","18 SPCS","47950","OBJECT U","TBA","U","21022U","2021-09-22 19:29:46","317696","15.05873048","0.002151","97.5449","165.9198","345.2868","87.7213","0","999","2770","0.00012222","0.00001722","0","3123736","0 OBJECT U","1 47950U 21022U   21265.81234164  .00001722  00000-0  12222-3 0  9991","2 47950  97.5449 165.9198 0021510 345.2868  87.7213 15.05873048 27704","2021-022U","47950","6926.964","95.626","563.729","533.929","0"
